[{"OBJECT_NAME":"STARLINK-1559","OBJECT_ID":"2020-055BC","EPOCH":"2026-03-09T05:36:23.522976","MEAN_MOTION":15.29461733,"ECCENTRICITY":0.0004229,"INCLINATION":53.0254,"RA_OF_ASC_NODE":76.0659,"ARG_OF_PERICENTER":33.971,"MEAN_ANOMALY":326.1559,"EPHEMERIS_TYPE":0,"CLASSIFICATION_TYPE":"U","NORAD_CAT_ID":46077,"ELEMENT_SET_NO":999,"REV_AT_EPOCH":30951,"BSTAR":0.0014778793,"MEAN_MOTION_DOT":0.00042685,"MEAN_MOTION_DDOT":0},{"OBJECT_NAME":"STARLINK-30568","OBJECT_ID":"2023-158A","EPOCH":"2026-03-09T22:00:01.999584","MEAN_MOTION":15.27549841,"ECCENTRICITY":0.00015759,"INCLINATION":43.0037,"RA_OF_ASC_NODE":26.1725,"ARG_OF_PERICENTER":255.5586,"MEAN_ANOMALY":331.1754,"EPHEMERIS_TYPE":0,"CLASSIFICATION_TYPE":"U","NORAD_CAT_ID":58051,"ELEMENT_SET_NO":999,"REV_AT_EPOCH":572,"BSTAR":0.0013657049,"MEAN_MOTION_DOT":0.00037476,"MEAN_MOTION_DDOT":0}]
